{"type": "FeatureCollection", "features": [{"type": "Feature", "properties": {"norad_id": 26766, "name": "INTELSAT 10 (IS-10)", "group": "intelsat", "lat": -1.0586059634855385, "lon": 54.00186020157115, "alt_km": 36143.82944469188, "timestamp": "2025-12-20T14:38:01.625910+00:00", "meta": {"OBJECT_NAME": "INTELSAT 10 (IS-10)", "OBJECT_ID": "2001-019A", "EPOCH": "2025-12-19T15:29:42.245376", "MEAN_MOTION": 0.99074952, "ECCENTRICITY": 0.00077634, "INCLINATION": 8.645, "RA_OF_ASC_NODE": 61.0877, "ARG_OF_PERICENTER": 228.9364, "MEAN_ANOMALY": 139.953, "EPHEMERIS_TYPE": 0, "CLASSIFICATION_TYPE": "U", "NORAD_CAT_ID": 26766, "ELEMENT_SET_NO": 999, "REV_AT_EPOCH": 4380, "BSTAR": 0, "MEAN_MOTION_DOT": -1.33e-06, "MEAN_MOTION_DDOT": 0}, "tle": {"line1": "1 26766U 01019A   25353.64562784 -.00000133  00000+0  00000+0 0  9994", "line2": "2 26766   8.6450  61.0877 0007763 228.9364 139.9530  0.99074952 43808"}}, "geometry": {"type": "Point", "coordinates": [54.00186020157115, -1.0586059634855385]}}, {"type": "Feature", "properties": {"norad_id": 26900, "name": "INTELSAT 902 (IS-902)", "group": "intelsat", "lat": -0.500827596501458, "lon": -101.22074743262078, "alt_km": 35767.95059164794, "timestamp": "2025-12-20T14:38:01.625934+00:00", "meta": {"OBJECT_NAME": "INTELSAT 902 (IS-902)", "OBJECT_ID": "2001-039A", "EPOCH": "2025-12-15T13:09:02.081664", "MEAN_MOTION": 1.0027087, "ECCENTRICITY": 0.00045028, "INCLINATION": 5.6536, "RA_OF_ASC_NODE": 74.0372, "ARG_OF_PERICENTER": 189.6359, "MEAN_ANOMALY": 327.9329, "EPHEMERIS_TYPE": 0, "CLASSIFICATION_TYPE": "U", "NORAD_CAT_ID": 26900, "ELEMENT_SET_NO": 999, "REV_AT_EPOCH": 8885, "BSTAR": 0, "MEAN_MOTION_DOT": -2.65e-06, "MEAN_MOTION_DDOT": 0}, "tle": {"line1": "1 26900U 01039A   25349.54794076 -.00000265  00000+0  00000+0 0  9997", "line2": "2 26900   5.6536  74.0372 0004502 189.6359 327.9329  1.00270870 88858"}}, "geometry": {"type": "Point", "coordinates": [-101.22074743262078, -0.500827596501458]}}, {"type": "Feature", "properties": {"norad_id": 27380, "name": "INTELSAT 904 (IS-904)", "group": "intelsat", "lat": -2.867485316588975, "lon": -82.71479329242281, "alt_km": 35781.077404299256, "timestamp": "2025-12-20T14:38:01.625952+00:00", "meta": {"OBJECT_NAME": "INTELSAT 904 (IS-904)", "OBJECT_ID": "2002-007A", "EPOCH": "2025-12-20T00:12:38.708640", "MEAN_MOTION": 1.00271119, "ECCENTRICITY": 0.00017883, "INCLINATION": 6.4716, "RA_OF_ASC_NODE": 71.3489, "ARG_OF_PERICENTER": 248.0569, "MEAN_ANOMALY": 101.1022, "EPHEMERIS_TYPE": 0, "CLASSIFICATION_TYPE": "U", "NORAD_CAT_ID": 27380, "ELEMENT_SET_NO": 999, "REV_AT_EPOCH": 4996, "BSTAR": 0, "MEAN_MOTION_DOT": -2.07e-06, "MEAN_MOTION_DDOT": 0}, "tle": {"line1": "1 27380U 02007A   25354.00878135 -.00000207  00000+0  00000+0 0  9998", "line2": "2 27380   6.4716  71.3489 0001788 248.0569 101.1022  1.00271119 49963"}}, "geometry": {"type": "Point", "coordinates": [-82.71479329242281, -2.867485316588975]}}, {"type": "Feature", "properties": {"norad_id": 27426, "name": "DIRECTV 5 (TEMPO 1)", "group": "intelsat", "lat": 3.773202962921459, "lon": -161.12338863349026, "alt_km": 35784.74652846217, "timestamp": "2025-12-20T14:38:01.625965+00:00", "meta": {"OBJECT_NAME": "DIRECTV 5 (TEMPO 1)", "OBJECT_ID": "2002-023A", "EPOCH": "2025-12-20T00:59:06.912672", "MEAN_MOTION": 1.00272785, "ECCENTRICITY": 0.00034472, "INCLINATION": 4.4196, "RA_OF_ASC_NODE": 77.5684, "ARG_OF_PERICENTER": 209.2291, "MEAN_ANOMALY": 66.7541, "EPHEMERIS_TYPE": 0, "CLASSIFICATION_TYPE": "U", "NORAD_CAT_ID": 27426, "ELEMENT_SET_NO": 999, "REV_AT_EPOCH": 8632, "BSTAR": 0, "MEAN_MOTION_DOT": -3.7e-07, "MEAN_MOTION_DDOT": 0}, "tle": {"line1": "1 27426U 02023A   25354.04105223 -.00000037  00000+0  00000+0 0  9993", "line2": "2 27426   4.4196  77.5684 0003447 209.2291  66.7541  1.00272785 86327"}}, "geometry": {"type": "Point", "coordinates": [-161.12338863349026, 3.773202962921459]}}, {"type": "Feature", "properties": {"norad_id": 27438, "name": "INTELSAT 905 (IS-905)", "group": "intelsat", "lat": 6.221329585953035, "lon": 171.76819509473498, "alt_km": 35787.12773202898, "timestamp": "2025-12-20T14:38:01.625978+00:00", "meta": {"OBJECT_NAME": "INTELSAT 905 (IS-905)", "OBJECT_ID": "2002-027A", "EPOCH": "2025-12-20T05:40:17.750784", "MEAN_MOTION": 1.00272535, "ECCENTRICITY": 0.00026517, "INCLINATION": 6.3032, "RA_OF_ASC_NODE": 71.9695, "ARG_OF_PERICENTER": 200.5359, "MEAN_ANOMALY": 124.4326, "EPHEMERIS_TYPE": 0, "CLASSIFICATION_TYPE": "U", "NORAD_CAT_ID": 27438, "ELEMENT_SET_NO": 999, "REV_AT_EPOCH": 4956, "BSTAR": 0, "MEAN_MOTION_DOT": 1.13e-06, "MEAN_MOTION_DDOT": 0}, "tle": {"line1": "1 27438U 02027A   25354.23631656  .00000113  00000+0  00000+0 0  9999", "line2": "2 27438   6.3032  71.9695 0002651 200.5359 124.4326  1.00272535 49566"}}, "geometry": {"type": "Point", "coordinates": [171.76819509473498, 6.221329585953035]}}, {"type": "Feature", "properties": {"norad_id": 27445, "name": "GALAXY 3C (G-3C)", "group": "intelsat", "lat": 2.3598503731010814, "lon": -145.85750524012855, "alt_km": 35783.15643733644, "timestamp": "2025-12-20T14:38:01.626007+00:00", "meta": {"OBJECT_NAME": "GALAXY 3C (G-3C)", "OBJECT_ID": "2002-030A", "EPOCH": "2025-12-20T03:29:00.040704", "MEAN_MOTION": 1.00271829, "ECCENTRICITY": 0.00011185, "INCLINATION": 3.2813, "RA_OF_ASC_NODE": 80.4298, "ARG_OF_PERICENTER": 77.884, "MEAN_ANOMALY": 248.0601, "EPHEMERIS_TYPE": 0, "CLASSIFICATION_TYPE": "U", "NORAD_CAT_ID": 27445, "ELEMENT_SET_NO": 999, "REV_AT_EPOCH": 4469, "BSTAR": 0, "MEAN_MOTION_DOT": -1.31e-06, "MEAN_MOTION_DDOT": 0}, "tle": {"line1": "1 27445U 02030A   25354.14513936 -.00000131  00000+0  00000+0 0  9992", "line2": "2 27445   3.2813  80.4298 0001118  77.8840 248.0601  1.00271829 44691"}}, "geometry": {"type": "Point", "coordinates": [-145.85750524012855, 2.3598503731010814]}}, {"type": "Feature", "properties": {"norad_id": 27513, "name": "INTELSAT 906 (IS-906)", "group": "intelsat", "lat": -4.719103675981322, "lon": 13.252963855520711, "alt_km": 35790.87574130654, "timestamp": "2025-12-20T14:38:01.626021+00:00", "meta": {"OBJECT_NAME": "INTELSAT 906 (IS-906)", "OBJECT_ID": "2002-041A", "EPOCH": "2025-12-19T20:34:46.617600", "MEAN_MOTION": 1.00272721, "ECCENTRICITY": 0.00063182, "INCLINATION": 5.3475, "RA_OF_ASC_NODE": 75.1475, "ARG_OF_PERICENTER": 198.3862, "MEAN_ANOMALY": 187.9892, "EPHEMERIS_TYPE": 0, "CLASSIFICATION_TYPE": "U", "NORAD_CAT_ID": 27513, "ELEMENT_SET_NO": 999, "REV_AT_EPOCH": 8523, "BSTAR": 0, "MEAN_MOTION_DOT": 3.3e-07, "MEAN_MOTION_DDOT": 0}, "tle": {"line1": "1 27513U 02041A   25353.85748400  .00000033  00000+0  00000+0 0  9993", "line2": "2 27513   5.3475  75.1475 0006318 198.3862 187.9892  1.00272721 85232"}}, "geometry": {"type": "Point", "coordinates": [13.252963855520711, -4.719103675981322]}}, {"type": "Feature", "properties": {"norad_id": 27954, "name": "GALAXY 13 (HORIZONS-1)", "group": "intelsat", "lat": 0.9215082395665266, "lon": 158.89320946057606, "alt_km": 35789.091185270314, "timestamp": "2025-12-20T14:38:01.626034+00:00", "meta": {"OBJECT_NAME": "GALAXY 13 (HORIZONS-1)", "OBJECT_ID": "2003-044A", "EPOCH": "2025-12-20T03:57:24.400800", "MEAN_MOTION": 1.00269643, "ECCENTRICITY": 0.00023959, "INCLINATION": 0.9556, "RA_OF_ASC_NODE": 86.3748, "ARG_OF_PERICENTER": 177.2022, "MEAN_ANOMALY": 94.7626, "EPHEMERIS_TYPE": 0, "CLASSIFICATION_TYPE": "U", "NORAD_CAT_ID": 27954, "ELEMENT_SET_NO": 999, "REV_AT_EPOCH": 4477, "BSTAR": 0, "MEAN_MOTION_DOT": 1.56e-06, "MEAN_MOTION_DDOT": 0}, "tle": {"line1": "1 27954U 03044A   25354.16486575  .00000156  00000+0  00000+0 0  9999", "line2": "2 27954   0.9556  86.3748 0002395 177.2022  94.7626  1.00269643 44777"}}, "geometry": {"type": "Point", "coordinates": [158.89320946057606, 0.9215082395665266]}}, {"type": "Feature", "properties": {"norad_id": 28358, "name": "INTELSAT 10-02", "group": "intelsat", "lat": -0.029608174966405738, "lon": -52.02577876183206, "alt_km": 35782.72187836335, "timestamp": "2025-12-20T14:38:01.626046+00:00", "meta": {"OBJECT_NAME": "INTELSAT 10-02", "OBJECT_ID": "2004-022A", "EPOCH": "2025-12-20T04:39:57.824928", "MEAN_MOTION": 1.00270562, "ECCENTRICITY": 8.818e-05, "INCLINATION": 0.0207, "RA_OF_ASC_NODE": 69.8428, "ARG_OF_PERICENTER": 231.0131, "MEAN_ANOMALY": 217.203, "EPHEMERIS_TYPE": 0, "CLASSIFICATION_TYPE": "U", "NORAD_CAT_ID": 28358, "ELEMENT_SET_NO": 999, "REV_AT_EPOCH": 7876, "BSTAR": 0, "MEAN_MOTION_DOT": 1.3e-07, "MEAN_MOTION_DDOT": 0}, "tle": {"line1": "1 28358U 04022A   25354.19441927  .00000013  00000+0  00000+0 0  9992", "line2": "2 28358   0.0207  69.8428 0000881 231.0131 217.2030  1.00270562 78768"}}, "geometry": {"type": "Point", "coordinates": [-52.02577876183206, -0.029608174966405738]}}, {"type": "Feature", "properties": {"norad_id": 28626, "name": "XM-3 (RHYTHM)", "group": "intelsat", "lat": -0.14644098972593877, "lon": 25.847262503630574, "alt_km": 36153.46259373963, "timestamp": "2025-12-20T14:38:01.626058+00:00", "meta": {"OBJECT_NAME": "XM-3 (RHYTHM)", "OBJECT_ID": "2005-008A", "EPOCH": "2025-12-20T03:20:05.476128", "MEAN_MOTION": 0.98949989, "ECCENTRICITY": 0.00019193, "INCLINATION": 0.193, "RA_OF_ASC_NODE": 81.965, "ARG_OF_PERICENTER": 278.2015, "MEAN_ANOMALY": 217.9729, "EPHEMERIS_TYPE": 0, "CLASSIFICATION_TYPE": "U", "NORAD_CAT_ID": 28626, "ELEMENT_SET_NO": 999, "REV_AT_EPOCH": 4082, "BSTAR": 0, "MEAN_MOTION_DOT": 6.8e-07, "MEAN_MOTION_DDOT": 0}, "tle": {"line1": "1 28626U 05008A   25354.13895227  .00000068  00000+0  00000+0 0  9995", "line2": "2 28626   0.1930  81.9650 0001919 278.2015 217.9729  0.98949989 40829"}}, "geometry": {"type": "Point", "coordinates": [25.847262503630574, -0.14644098972593877]}}]}